{
  "type": "FeatureCollection",
  "features": [
    {
      "type": "Feature",
      "properties": {
        "norad_id": 34079,
        "name": "IRIDIUM 33 DEB",
        "group": "iridium-33-debris",
        "lat": 86.31811196717517,
        "lon": 113.48238976175621,
        "alt_km": 609.172066746617,
        "timestamp": "2025-12-02T15:49:07.578441+00:00",
        "meta_object_name": "IRIDIUM 33 DEB",
        "meta_object_id": "1997-051CN",
        "meta_epoch": "2025-12-02T02:41:47.766624",
        "meta_mean_motion": 14.83089059,
        "meta_eccentricity": 0.00068188,
        "meta_inclination": 86.379,
        "meta_ra_of_asc_node": 13.4941,
        "meta_arg_of_pericenter": 39.8853,
        "meta_mean_anomaly": 13.4166,
        "meta_ephemeris_type": 0,
        "meta_classification_type": "U",
        "meta_norad_cat_id": 34079,
        "meta_element_set_no": 999,
        "meta_rev_at_epoch": 88820,
        "meta_bstar": 0.0017614737,
        "meta_mean_motion_dot": 0.00014386,
        "meta_mean_motion_ddot": 0,
        "tle_line1": "1 34079U 97051CN  25336.11235841  .00014386  00000+0  17615-2 0  9992",
        "tle_line2": "2 34079  86.3790  13.4941 0006818  39.8853  13.4166 14.83089059888203"
      },
      "geometry": {
        "type": "Point",
        "coordinates": [
          113.48238976175621,
          86.31811196717517
        ]
      }
    },
    {
      "type": "Feature",
      "properties": {
        "norad_id": 34088,
        "name": "IRIDIUM 33 DEB",
        "group": "iridium-33-debris",
        "lat": -82.8161714346871,
        "lon": -114.55694856822035,
        "alt_km": 601.2204177883741,
        "timestamp": "2025-12-02T15:49:07.578452+00:00",
        "meta_object_name": "IRIDIUM 33 DEB",
        "meta_object_id": "1997-051CX",
        "meta_epoch": "2025-12-02T05:14:28.919328",
        "meta_mean_motion": 14.90549339,
        "meta_eccentricity": 0.00051268,
        "meta_inclination": 86.3866,
        "meta_ra_of_asc_node": 35.5553,
        "meta_arg_of_pericenter": 216.8077,
        "meta_mean_anomaly": 203.5525,
        "meta_ephemeris_type": 0,
        "meta_classification_type": "U",
        "meta_norad_cat_id": 34088,
        "meta_element_set_no": 999,
        "meta_rev_at_epoch": 88585,
        "meta_bstar": 0.003087927,
        "meta_mean_motion_dot": 0.00030304,
        "meta_mean_motion_ddot": 0,
        "tle_line1": "1 34088U 97051CX  25336.21839027  .00030304  00000+0  30879-2 0  9994",
        "tle_line2": "2 34088  86.3866  35.5553 0005126 216.8077 203.5525 14.90549339885856"
      },
      "geometry": {
        "type": "Point",
        "coordinates": [
          -114.55694856822035,
          -82.8161714346871
        ]
      }
    },
    {
      "type": "Feature",
      "properties": {
        "norad_id": 34091,
        "name": "IRIDIUM 33 DEB",
        "group": "iridium-33-debris",
        "lat": 83.22971206414225,
        "lon": 104.05289002051525,
        "alt_km": 629.8048643613502,
        "timestamp": "2025-12-02T15:49:07.578463+00:00",
        "meta_object_name": "IRIDIUM 33 DEB",
        "meta_object_id": "1997-051DA",
        "meta_epoch": "2025-12-02T05:42:26.763264",
        "meta_mean_motion": 14.80503091,
        "meta_eccentricity": 0.00329166,
        "meta_inclination": 86.342,
        "meta_ra_of_asc_node": 71.638,
        "meta_arg_of_pericenter": 331.035,
        "meta_mean_anomaly": 28.9043,
        "meta_ephemeris_type": 0,
        "meta_classification_type": "U",
        "meta_norad_cat_id": 34091,
        "meta_element_set_no": 999,
        "meta_rev_at_epoch": 87711,
        "meta_bstar": 0.0059169187,
        "meta_mean_motion_dot": 0.00045975,
        "meta_mean_motion_ddot": 0,
        "tle_line1": "1 34091U 97051DA  25336.23780976  .00045975  00000+0  59169-2 0  9991",
        "tle_line2": "2 34091  86.3420  71.6380 0032916 331.0350  28.9043 14.80503091877114"
      },
      "geometry": {
        "type": "Point",
        "coordinates": [
          104.05289002051525,
          83.22971206414225
        ]
      }
    },
    {
      "type": "Feature",
      "properties": {
        "norad_id": 34097,
        "name": "IRIDIUM 33 DEB",
        "group": "iridium-33-debris",
        "lat": -36.97106271810889,
        "lon": -171.2759455479776,
        "alt_km": 842.587429119254,
        "timestamp": "2025-12-02T15:49:07.578474+00:00",
        "meta_object_name": "IRIDIUM 33 DEB",
        "meta_object_id": "1997-051DG",
        "meta_epoch": "2025-12-02T03:05:43.364832",
        "meta_mean_motion": 14.34646707,
        "meta_eccentricity": 0.00838008,
        "meta_inclination": 86.2012,
        "meta_ra_of_asc_node": 6.091,
        "meta_arg_of_pericenter": 36.59,
        "meta_mean_anomaly": 324.0979,
        "meta_ephemeris_type": 0,
        "meta_classification_type": "U",
        "meta_norad_cat_id": 34097,
        "meta_element_set_no": 999,
        "meta_rev_at_epoch": 86967,
        "meta_bstar": 0.001439253,
        "meta_mean_motion_dot": 4.252e-05,
        "meta_mean_motion_ddot": 0,
        "tle_line1": "1 34097U 97051DG  25336.12897413  .00004252  00000+0  14393-2 0  9993",
        "tle_line2": "2 34097  86.2012   6.0910 0083800  36.5900 324.0979 14.34646707869674"
      },
      "geometry": {
        "type": "Point",
        "coordinates": [
          -171.2759455479776,
          -36.97106271810889
        ]
      }
    },
    {
      "type": "Feature",
      "properties": {
        "norad_id": 34145,
        "name": "IRIDIUM 33 DEB",
        "group": "iridium-33-debris",
        "lat": -34.51310333446946,
        "lon": 159.62816813136885,
        "alt_km": 756.4833844960731,
        "timestamp": "2025-12-02T15:49:07.578485+00:00",
        "meta_object_name": "IRIDIUM 33 DEB",
        "meta_object_id": "1997-051DY",
        "meta_epoch": "2025-12-02T04:50:28.112064",
        "meta_mean_motion": 14.42171439,
        "meta_eccentricity": 0.00552104,
        "meta_inclination": 86.2116,
        "meta_ra_of_asc_node": 337.2204,
        "meta_arg_of_pericenter": 127.3566,
        "meta_mean_anomaly": 233.2682,
        "meta_ephemeris_type": 0,
        "meta_classification_type": "U",
        "meta_norad_cat_id": 34145,
        "meta_element_set_no": 999,
        "meta_rev_at_epoch": 87486,
        "meta_bstar": 0.0012017208,
        "meta_mean_motion_dot": 4.048e-05,
        "meta_mean_motion_ddot": 0,
        "tle_line1": "1 34145U 97051DY  25336.20171426  .00004048  00000+0  12017-2 0  9999",
        "tle_line2": "2 34145  86.2116 337.2204 0055210 127.3566 233.2682 14.42171439874862"
      },
      "geometry": {
        "type": "Point",
        "coordinates": [
          159.62816813136885,
          -34.51310333446946
        ]
      }
    },
    {
      "type": "Feature",
      "properties": {
        "norad_id": 34146,
        "name": "IRIDIUM 33 DEB",
        "group": "iridium-33-debris",
        "lat": -33.18854703155823,
        "lon": -8.182297277137584,
        "alt_km": 728.9434610437056,
        "timestamp": "2025-12-02T15:49:07.578496+00:00",
        "meta_object_name": "IRIDIUM 33 DEB",
        "meta_object_id": "1997-051DZ",
        "meta_epoch": "2025-12-02T07:45:12.587040",
        "meta_mean_motion": 14.48929067,
        "meta_eccentricity": 0.00249746,
        "meta_inclination": 86.284,
        "meta_ra_of_asc_node": 354.4024,
        "meta_arg_of_pericenter": 259.0769,
        "meta_mean_anomaly": 115.7131,
        "meta_ephemeris_type": 0,
        "meta_classification_type": "U",
        "meta_norad_cat_id": 34146,
        "meta_element_set_no": 999,
        "meta_rev_at_epoch": 87956,
        "meta_bstar": 0.0011939086,
        "meta_mean_motion_dot": 4.556e-05,
        "meta_mean_motion_ddot": 0,
        "tle_line1": "1 34146U 97051DZ  25336.32306235  .00004556  00000+0  11939-2 0  9997",
        "tle_line2": "2 34146  86.2840 354.4024 0024974 259.0769 115.7131 14.48929067879568"
      },
      "geometry": {
        "type": "Point",
        "coordinates": [
          -8.182297277137584,
          -33.18854703155823
        ]
      }
    },
    {
      "type": "Feature",
      "properties": {
        "norad_id": 34159,
        "name": "IRIDIUM 33 DEB",
        "group": "iridium-33-debris",
        "lat": 62.64423791024761,
        "lon": 59.62274299796166,
        "alt_km": 760.7548787371115,
        "timestamp": "2025-12-02T15:49:07.578506+00:00",
        "meta_object_name": "IRIDIUM 33 DEB",
        "meta_object_id": "1997-051EN",
        "meta_epoch": "2025-12-02T05:30:39.558528",
        "meta_mean_motion": 14.38450658,
        "meta_eccentricity": 0.00265694,
        "meta_inclination": 86.3516,
        "meta_ra_of_asc_node": 52.7218,
        "meta_arg_of_pericenter": 324.6126,
        "meta_mean_anomaly": 35.3308,
        "meta_ephemeris_type": 0,
        "meta_classification_type": "U",
        "meta_norad_cat_id": 34159,
        "meta_element_set_no": 999,
        "meta_rev_at_epoch": 87808,
        "meta_bstar": 0.00054435887,
        "meta_mean_motion_dot": 1.686e-05,
        "meta_mean_motion_ddot": 0,
        "tle_line1": "1 34159U 97051EN  25336.22962452  .00001686  00000+0  54436-3 0  9990",
        "tle_line2": "2 34159  86.3516  52.7218 0026569 324.6126  35.3308 14.38450658878087"
      },
      "geometry": {
        "type": "Point",
        "coordinates": [
          59.62274299796166,
          62.64423791024761
        ]
      }
    }
  ]
}